{
    "links": {
        "self": "http://www.neowsapp.com/rest/v1/neo/54017303?api_key=iIulBulltgU6a56xZRHN4H3l9WmuAYTsLGpBGhQ2"
    },
    "id": "54017303",
    "neo_reference_id": "54017303",
    "name": "(2020 KA7)",
    "designation": "2020 KA7",
    "nasa_jpl_url": "http://ssd.jpl.nasa.gov/sbdb.cgi?sstr=54017303",
    "absolute_magnitude_h": 25.361,
    "estimated_diameter": {
        "kilometers": {
            "estimated_diameter_min": 0.0225089365,
            "estimated_diameter_max": 0.0503315122
        },
        "meters": {
            "estimated_diameter_min": 22.5089365323,
            "estimated_diameter_max": 50.3315121876
        },
        "miles": {
            "estimated_diameter_min": 0.0139864004,
            "estimated_diameter_max": 0.0312745421
        },
        "feet": {
            "estimated_diameter_min": 73.8482193328,
            "estimated_diameter_max": 165.1296384454
        }
    },
    "is_potentially_hazardous_asteroid": false,
    "close_approach_data": [
        {
            "close_approach_date": "1951-06-09",
            "close_approach_date_full": "1951-Jun-09 17:40",
            "epoch_date_close_approach": -585814800000,
            "relative_velocity": {
                "kilometers_per_second": "7.3687119836",
                "kilometers_per_hour": "26527.3631410178",
                "miles_per_hour": "16483.0718361507"
            },
            "miss_distance": {
                "astronomical": "0.0248222067",
                "lunar": "9.6558384063",
                "kilometers": "3713349.251019729",
                "miles": "2307368.2304971002"
            },
            "orbiting_body": "Earth"
        },
        {
            "close_approach_date": "2020-06-07",
            "close_approach_date_full": "2020-Jun-07 06:33",
            "epoch_date_close_approach": 1591511580000,
            "relative_velocity": {
                "kilometers_per_second": "7.3420906867",
                "kilometers_per_hour": "26431.5264722034",
                "miles_per_hour": "16423.522657131"
            },
            "miss_distance": {
                "astronomical": "0.0265363867",
                "lunar": "10.3226544263",
                "kilometers": "3969786.927816329",
                "miles": "2466711.2140261802"
            },
            "orbiting_body": "Earth"
        },
        {
            "close_approach_date": "2102-07-20",
            "close_approach_date_full": "2102-Jul-20 13:06",
            "epoch_date_close_approach": 4182843960000,
            "relative_velocity": {
                "kilometers_per_second": "15.4285106151",
                "kilometers_per_hour": "55542.6382144147",
                "miles_per_hour": "34512.0353949512"
            },
            "miss_distance": {
                "astronomical": "0.3356101959",
                "lunar": "130.5523662051",
                "kilometers": "50206570.456922733",
                "miles": "31196916.2617023954"
            },
            "orbiting_body": "Earth"
        }
    ],
    "orbital_data": {
        "orbit_id": "9",
        "orbit_determination_date": "2020-06-30 06:02:55",
        "first_observation_date": "2020-05-29",
        "last_observation_date": "2020-06-21",
        "data_arc_in_days": 23,
        "observations_used": 63,
        "orbit_uncertainty": "7",
        "minimum_orbit_intersection": ".0234348",
        "jupiter_tisserand_invariant": "4.089",
        "epoch_osculation": "2459000.5",
        "eccentricity": ".3937601507225418",
        "semi_major_axis": "1.705640673102605",
        "inclination": "9.321598471604164",
        "ascending_node_longitude": "81.2545968453404",
        "orbital_period": "813.6352252200596",
        "perihelion_distance": "1.034027344583225",
        "perihelion_argument": "168.6592475203458",
        "aphelion_distance": "2.377254001621984",
        "perihelion_time": "2459001.152753235559",
        "mean_anomaly": "359.7111836391576",
        "mean_motion": ".4424587196340137",
        "equinox": "J2000",
        "orbit_class": {
            "orbit_class_type": "AMO",
            "orbit_class_description": "Near-Earth asteroid orbits similar to that of 1221 Amor",
            "orbit_class_range": "1.017 AU < q (perihelion) < 1.3 AU"
        }
    },
    "is_sentry_object": false
}